[{"OBJECT_NAME":"GOES 1 (SMS-C)","OBJECT_ID":"1975-100A","EPOCH":"2026-04-05T13:13:00.126624","MEAN_MOTION":1.00244789,"ECCENTRICITY":0.00047258,"INCLINATION":4.7926,"RA_OF_ASC_NODE":278.37,"ARG_OF_PERICENTER":2.5401,"MEAN_ANOMALY":346.969,"EPHEMERIS_TYPE":0,"CLASSIFICATION_TYPE":"U","NORAD_CAT_ID":8366,"ELEMENT_SET_NO":999,"REV_AT_EPOCH":18433,"BSTAR":0,"MEAN_MOTION_DOT":3.2e-7,"MEAN_MOTION_DDOT":0},{"OBJECT_NAME":"GOES 2","OBJECT_ID":"1977-048A","EPOCH":"2026-04-05T05:58:17.175360","MEAN_MOTION":0.99399916,"ECCENTRICITY":0.001372,"INCLINATION":6.5939,"RA_OF_ASC_NODE":293.9791,"ARG_OF_PERICENTER":51.6239,"MEAN_ANOMALY":312.6531,"EPHEMERIS_TYPE":0,"CLASSIFICATION_TYPE":"U","NORAD_CAT_ID":10061,"ELEMENT_SET_NO":999,"REV_AT_EPOCH":4555,"BSTAR":0,"MEAN_MOTION_DOT":-5.3e-7,"MEAN_MOTION_DDOT":0},{"OBJECT_NAME":"GOES 3","OBJECT_ID":"1978-062A","EPOCH":"2026-04-05T04:26:33.730368","MEAN_MOTION":0.99358697,"ECCENTRICITY":0.0002081,"INCLINATION":7.0679,"RA_OF_ASC_NODE":299.8456,"ARG_OF_PERICENTER":7.469,"MEAN_ANOMALY":6.977,"EPHEMERIS_TYPE":0,"CLASSIFICATION_TYPE":"U","NORAD_CAT_ID":10953,"ELEMENT_SET_NO":999,"REV_AT_EPOCH":12781,"BSTAR":0,"MEAN_MOTION_DOT":1.0e-6,"MEAN_MOTION_DDOT":0},{"OBJECT_NAME":"GOES 4","OBJECT_ID":"1980-074A","EPOCH":"2026-04-05T08:13:38.646624","MEAN_MOTION":0.9923323,"ECCENTRICITY":0.00327048,"INCLINATION":8.1434,"RA_OF_ASC_NODE":303.5117,"ARG_OF_PERICENTER":104.5376,"MEAN_ANOMALY":96.7251,"EPHEMERIS_TYPE":0,"CLASSIFICATION_TYPE":"U","NORAD_CAT_ID":11964,"ELEMENT_SET_NO":999,"REV_AT_EPOCH":12671,"BSTAR":0,"MEAN_MOTION_DOT":-9.4e-7,"MEAN_MOTION_DDOT":0},{"OBJECT_NAME":"GOES 5","OBJECT_ID":"1981-049A","EPOCH":"2026-04-05T03:43:52.823136","MEAN_MOTION":1.0020651,"ECCENTRICITY":0.00040991,"INCLINATION":9.49,"RA_OF_ASC_NODE":316.1477,"ARG_OF_PERICENTER":343.1093,"MEAN_ANOMALY":214.2804,"EPHEMERIS_TYPE":0,"CLASSIFICATION_TYPE":"U","NORAD_CAT_ID":12472,"ELEMENT_SET_NO":999,"REV_AT_EPOCH":12211,"BSTAR":0,"MEAN_MOTION_DOT":-1.54e-6,"MEAN_MOTION_DDOT":0},{"OBJECT_NAME":"GOES 6","OBJECT_ID":"1983-041A","EPOCH":"2026-04-05T05:20:58.509024","MEAN_MOTION":1.00220973,"ECCENTRICITY":0.0001709,"INCLINATION":10.3077,"RA_OF_ASC_NODE":321.7038,"ARG_OF_PERICENTER":311.442,"MEAN_ANOMALY":245.0498,"EPHEMERIS_TYPE":0,"CLASSIFICATION_TYPE":"U","NORAD_CAT_ID":14050,"ELEMENT_SET_NO":999,"REV_AT_EPOCH":21528,"BSTAR":0,"MEAN_MOTION_DOT":-3.4e-7,"MEAN_MOTION_DDOT":0},{"OBJECT_NAME":"GOES 7","OBJECT_ID":"1987-022A","EPOCH":"2026-04-04T10:14:39.046848","MEAN_MOTION":0.99907334,"ECCENTRICITY":0.00040588,"INCLINATION":12.9934,"RA_OF_ASC_NODE":338.1585,"ARG_OF_PERICENTER":24.865,"MEAN_ANOMALY":168.6782,"EPHEMERIS_TYPE":0,"CLASSIFICATION_TYPE":"U","NORAD_CAT_ID":17561,"ELEMENT_SET_NO":999,"REV_AT_EPOCH":12622,"BSTAR":0,"MEAN_MOTION_DOT":0,"MEAN_MOTION_DDOT":0},{"OBJECT_NAME":"GOES 8","OBJECT_ID":"1994-022A","EPOCH":"2026-04-03T23:34:38.525376","MEAN_MOTION":0.98906605,"ECCENTRICITY":0.00058518,"INCLINATION":14.3674,"RA_OF_ASC_NODE":14.2407,"ARG_OF_PERICENTER":25.8156,"MEAN_ANOMALY":163.3379,"EPHEMERIS_TYPE":0,"CLASSIFICATION_TYPE":"U","NORAD_CAT_ID":23051,"ELEMENT_SET_NO":999,"REV_AT_EPOCH":12339,"BSTAR":0,"MEAN_MOTION_DOT":-1.13e-6,"MEAN_MOTION_DDOT":0},{"OBJECT_NAME":"GOES 9","OBJECT_ID":"1995-025A","EPOCH":"2026-04-04T12:33:59.512608","MEAN_MOTION":0.98799732,"ECCENTRICITY":0.00027776,"INCLINATION":13.8983,"RA_OF_ASC_NODE":15.0896,"ARG_OF_PERICENTER":195.7774,"MEAN_ANOMALY":285.3709,"EPHEMERIS_TYPE":0,"CLASSIFICATION_TYPE":"U","NORAD_CAT_ID":23581,"ELEMENT_SET_NO":999,"REV_AT_EPOCH":11203,"BSTAR":0,"MEAN_MOTION_DOT":-1.64e-6,"MEAN_MOTION_DDOT":0},{"OBJECT_NAME":"GOES 10","OBJECT_ID":"1997-019A","EPOCH":"2026-04-04T03:49:38.799840","MEAN_MOTION":0.99127384,"ECCENTRICITY":0.00300222,"INCLINATION":13.0402,"RA_OF_ASC_NODE":21.6274,"ARG_OF_PERICENTER":239.6985,"MEAN_ANOMALY":317.4901,"EPHEMERIS_TYPE":0,"CLASSIFICATION_TYPE":"U","NORAD_CAT_ID":24786,"ELEMENT_SET_NO":999,"REV_AT_EPOCH":10533,"BSTAR":0,"MEAN_MOTION_DOT":-2.61e-6,"MEAN_MOTION_DDOT":0},{"OBJECT_NAME":"GOES 11","OBJECT_ID":"2000-022A","EPOCH":"2026-04-05T04:52:08.775840","MEAN_MOTION":0.99044849,"ECCENTRICITY":0.000504,"INCLINATION":11.6488,"RA_OF_ASC_NODE":47.1361,"ARG_OF_PERICENTER":263.4836,"MEAN_ANOMALY":99.1741,"EPHEMERIS_TYPE":0,"CLASSIFICATION_TYPE":"U","NORAD_CAT_ID":26352,"ELEMENT_SET_NO":999,"REV_AT_EPOCH":5175,"BSTAR":0,"MEAN_MOTION_DOT":-2.87e-6,"MEAN_MOTION_DDOT":0},{"OBJECT_NAME":"GOES 12","OBJECT_ID":"2001-031A","EPOCH":"2026-04-05T13:32:53.968128","MEAN_MOTION":0.99140871,"ECCENTRICITY":0.00084715,"INCLINATION":12.0546,"RA_OF_ASC_NODE":37.8727,"ARG_OF_PERICENTER":302.5308,"MEAN_ANOMALY":225.4649,"EPHEMERIS_TYPE":0,"CLASSIFICATION_TYPE":"U","NORAD_CAT_ID":26871,"ELEMENT_SET_NO":999,"REV_AT_EPOCH":9004,"BSTAR":0,"MEAN_MOTION_DOT":-2.25e-6,"MEAN_MOTION_DDOT":0},{"OBJECT_NAME":"EWS-G1 (GOES 13)","OBJECT_ID":"2006-018A","EPOCH":"2026-04-05T13:22:11.103744","MEAN_MOTION":0.9878482,"ECCENTRICITY":0.00618668,"INCLINATION":4.3448,"RA_OF_ASC_NODE":77.288,"ARG_OF_PERICENTER":275.1051,"MEAN_ANOMALY":119.0057,"EPHEMERIS_TYPE":0,"CLASSIFICATION_TYPE":"U","NORAD_CAT_ID":29155,"ELEMENT_SET_NO":999,"REV_AT_EPOCH":4253,"BSTAR":0,"MEAN_MOTION_DOT":4.8e-7,"MEAN_MOTION_DDOT":0},{"OBJECT_NAME":"GOES 14","OBJECT_ID":"2009-033A","EPOCH":"2026-04-05T13:36:46.097280","MEAN_MOTION":1.00112117,"ECCENTRICITY":0.00018426,"INCLINATION":1.5025,"RA_OF_ASC_NODE":83.9206,"ARG_OF_PERICENTER":298.909,"MEAN_ANOMALY":197.8428,"EPHEMERIS_TYPE":0,"CLASSIFICATION_TYPE":"U","NORAD_CAT_ID":35491,"ELEMENT_SET_NO":999,"REV_AT_EPOCH":586,"BSTAR":0,"MEAN_MOTION_DOT":4.6e-7,"MEAN_MOTION_DDOT":0},{"OBJECT_NAME":"EWS-G2 (GOES 15)","OBJECT_ID":"2010-008A","EPOCH":"2026-04-05T15:08:50.453664","MEAN_MOTION":1.00271576,"ECCENTRICITY":0.00034236,"INCLINATION":1.0868,"RA_OF_ASC_NODE":84.2725,"ARG_OF_PERICENTER":18.0388,"MEAN_ANOMALY":22.1029,"EPHEMERIS_TYPE":0,"CLASSIFICATION_TYPE":"U","NORAD_CAT_ID":36411,"ELEMENT_SET_NO":999,"REV_AT_EPOCH":5891,"BSTAR":0,"MEAN_MOTION_DOT":2.4e-7,"MEAN_MOTION_DDOT":0},{"OBJECT_NAME":"GOES 16","OBJECT_ID":"2016-071A","EPOCH":"2026-04-05T12:14:50.341632","MEAN_MOTION":1.00272287,"ECCENTRICITY":0.00018177,"INCLINATION":0.1754,"RA_OF_ASC_NODE":85.2811,"ARG_OF_PERICENTER":247.7312,"MEAN_ANOMALY":299.8111,"EPHEMERIS_TYPE":0,"CLASSIFICATION_TYPE":"U","NORAD_CAT_ID":41866,"ELEMENT_SET_NO":999,"REV_AT_EPOCH":3437,"BSTAR":0,"MEAN_MOTION_DOT":-8.9e-7,"MEAN_MOTION_DDOT":0},{"OBJECT_NAME":"GOES 17","OBJECT_ID":"2018-022A","EPOCH":"2026-04-05T12:19:12.423072","MEAN_MOTION":1.00271544,"ECCENTRICITY":0.00011885,"INCLINATION":0.751,"RA_OF_ASC_NODE":86.7864,"ARG_OF_PERICENTER":260.2321,"MEAN_ANOMALY":302.0968,"EPHEMERIS_TYPE":0,"CLASSIFICATION_TYPE":"U","NORAD_CAT_ID":43226,"ELEMENT_SET_NO":999,"REV_AT_EPOCH":2969,"BSTAR":0,"MEAN_MOTION_DOT":-1.81e-6,"MEAN_MOTION_DDOT":0}]
